FLOCK 4BE-27            
1 60513U 24149AX  26165.19465735  .00009073  00000+0  27469-3 0  9994
2 60513  97.3833 247.0440 0002692 331.9861  28.1237 15.34400896101680
FLOCK 4BE-9             
1 60514U 24149AY  26165.16756259  .00016337  00000+0  40166-3 0  9996
2 60514  97.3799 249.4095 0001463 317.9495  42.1639 15.40716109101851
FLOCK 4BE-6             
1 60516U 24149BA  26165.19394916  .00014170  00000+0  36287-3 0  9991
2 60516  97.3799 248.8003 0002093 313.2769  46.8302 15.39503673101810
FLOCK 4BE-14            
1 60517U 24149BB  26165.11548626  .00017460  00000+0  42630-3 0  9997
2 60517  97.3706 248.8548 0003060 308.6922  51.4051 15.40908755101856
FLOCK 4BE-1             
1 60518U 24149BC  26165.19947786  .00017360  00000+0  40195-3 0  9999
2 60518  97.3787 250.2059 0002847 305.1946  54.9035 15.42512521101911
FLOCK 4BE-28            
1 60519U 24149BD  26165.21815535  .00018518  00000+0  39659-3 0  9998
2 60519  97.3753 250.9402 0002871 299.7642  60.3321 15.44822943101982
IPERDRONE.0             
1 60520U 24149BE  26165.17633145  .00074840  00000+0  72178-3 0  9993
2 60520  97.3785 258.2396 0003403 233.7515 126.3431 15.66259635102444
TRANSPORTER-11 OBJECT BF
1 60521U 24149BF  26164.78097643  .00233011  00000+0  10576-2 0  9997
2 60521  97.3763 260.4592 0005712 237.8480 122.2236 15.83263426102546
CONNECTA IOT-2          
1 60522U 24149BG  26165.15969687  .00004644  00000+0  19488-3 0  9996
2 60522  97.3844 243.3509 0005814 349.7852  10.3266 15.23952414101437
PTD-R (TYVAK-0127)      
1 60523U 24149BH  26164.76033934  .02620933  24567-5  80186-3 0  9990
2 60523  97.3737 265.5498 0012274 266.6682  93.3206 16.26616725102890
CONNECTA IOT-4          
1 60524U 24149BJ  26165.15751441  .00019352  00000+0  45472-3 0  9999
2 60524  97.3806 249.4914 0004009 299.8693  60.2156 15.42043485101866
ORESAT0.5               
1 60525U 24149BK  26165.20374123  .00019884  00000+0  42330-3 0  9994
2 60525  97.3731 251.1577 0004052 286.9608  73.1197 15.44981148102015
DEIMOS                  
1 60526U 24149BL  26165.16950419  .00018948  00000+0  41529-3 0  9997
2 60526  97.3788 251.2652 0004074 296.6653  63.4177 15.44128834101985
CUAVA-2                 
1 60527U 24149BM  26165.21687325  .00011925  00000+0  34161-3 0  9999
2 60527  97.3734 246.7308 0005294 308.7416  51.3354 15.36057674101719
ERNST                   
1 60528U 24149BN  26165.17923736  .00014720  00000+0  38122-3 0  9991
2 60528  97.3818 248.8759 0004550 313.2865  46.8001 15.39141015101814
TORO                    
1 60530U 24149BQ  26165.16386149  .00002221  00000+0  20101-3 0  9995
2 60530  97.6790 239.8881 0001676  84.7237 275.4175 14.96416329 99503
HYPSO-2                 
1 60531U 24149BR  26165.19640086  .00002179  00000+0  18577-3 0  9998
2 60531  97.6818 241.5014 0000768  30.4795 329.6472 14.98777509 99606
LEMU NGE                
1 60532U 24149BS  26165.17316764  .00002035  00000+0  19158-3 0  9997
2 60532  97.6849 240.1935 0002359  69.0956 291.0517 14.94946565 99500
LEMUR-2-STELLA          
1 60533U 24149BT  26165.16946749  .00012144  00000+0  71531-3 0  9994
2 60533  97.6746 247.6108 0001643  94.5801 265.5617 15.11753702100046
SATELIOT_2              
1 60534U 24149BU  26165.21775895  .00002184  00000+0  19808-3 0  9995
2 60534  97.6829 240.2277 0002015  99.1901 260.9549 14.96350619 99526
NIGHTJAR                
1 60535U 24149BV  26165.18831961  .00002198  00000+0  18624-3 0  9999
2 60535  97.6853 241.9373 0001613  77.6858 282.4545 14.99006489142423
LEMUR-2-MARHISYAM       
1 60536U 24149BW  26165.21490163  .00011047  00000+0  66094-3 0  9996
2 60536  97.6890 248.1025 0003432 121.4376 238.7189 15.11210346100035
SATELIOT_4              
1 60537U 24149BX  26165.16234404  .00002185  00000+0  19655-3 0  9999
2 60537  97.6742 239.7032 0003424  68.4288 291.7299 14.96660880 99525
PICO-02A021             
1 60538U 24149BY  26163.70658029  .00006572  00000+0  48997-3 0  9996
2 60538  97.6744 242.5761 0005112  39.5779 320.5819 15.03207412 99064
ICEYE-X43               
1 60539U 24149BZ  26165.15946266  .00003987  00000+0  32855-3 0  9994
2 60539  97.6780 242.1656 0008141  93.6841 266.5314 14.99596606 99665
HAWK-10A                
1 60540U 24149CA  26165.16076470  .00002258  00000+0  20376-3 0  9993
2 60540  97.6896 241.1240 0005090  86.7549 273.4255 14.96507252 99534
UMBRA-09                
1 60541U 24149CB  26165.16706397  .00018499  00000+0  91245-3 0  9999
2 60541  97.6981 252.3209 0000525 291.4074  68.7103 15.17970798100268
QPS-SAR-8 (AMATERU-IV)  
1 60542U 24149CC  26165.20001249  .00004806  00000+0  35114-3 0  9999
2 60542  97.6673 244.3753 0005011 113.7238 246.4514 15.04111446 99828
ARCTIC WEATHER SATELLITE
1 60543U 24149CD  26165.19844025  .00000788  00000+0  87690-4 0  9997
2 60543  97.6801 235.7494 0003604 109.6810 250.4797 14.89802257 98853
CAPELLA-15 (ACADIA-5)   
1 60544U 24149CE  26165.10423500  .00003782  00000+0  37468-3 0  9994
2 60544  97.6775 238.0849 0005034  86.7003 273.4792 14.92396744 99395
