OBJECT_NAME,OBJECT_ID,EPOCH,MEAN_MOTION,ECCENTRICITY,INCLINATION,RA_OF_ASC_NODE,ARG_OF_PERICENTER,MEAN_ANOMALY,EPHEMERIS_TYPE,CLASSIFICATION_TYPE,NORAD_CAT_ID,ELEMENT_SET_NO,REV_AT_EPOCH,BSTAR,MEAN_MOTION_DOT,MEAN_MOTION_DDOT
FLOCK 4BE-27,2024-149AX,2026-06-14T04:40:18.395040,15.34400896,.0002692,97.3833,247.0440,331.9861,28.1237,0,U,60513,999,10168,.27469E-3,.9073E-4,0
FLOCK 4BE-9,2024-149AY,2026-06-14T04:01:17.407776,15.40716109,.0001463,97.3799,249.4095,317.9495,42.1639,0,U,60514,999,10185,.40166E-3,.16337E-3,0
FLOCK 4BE-6,2024-149BA,2026-06-14T04:39:17.207424,15.39503673,.0002093,97.3799,248.8003,313.2769,46.8302,0,U,60516,999,10181,.36287E-3,.1417E-3,0
FLOCK 4BE-14,2024-149BB,2026-06-14T02:46:18.012864,15.40908755,.000306,97.3706,248.8548,308.6922,51.4051,0,U,60517,999,10185,.4263E-3,.1746E-3,0
FLOCK 4BE-1,2024-149BC,2026-06-14T04:47:14.887104,15.42512521,.0002847,97.3787,250.2059,305.1946,54.9035,0,U,60518,999,10191,.40195E-3,.1736E-3,0
FLOCK 4BE-28,2024-149BD,2026-06-14T05:14:08.622240,15.44822943,.0002871,97.3753,250.9402,299.7642,60.3321,0,U,60519,999,10198,.39659E-3,.18518E-3,0
IPERDRONE.0,2024-149BE,2026-06-14T04:13:55.037280,15.66259635,.0003403,97.3785,258.2396,233.7515,126.3431,0,U,60520,999,10244,.72178E-3,.7484E-3,0
TRANSPORTER-11 OBJECT BF,2024-149BF,2026-06-13T18:44:36.363552,15.83263426,.00057122,97.3763,260.4592,237.8480,122.2236,0,U,60521,999,10254,.10576249E-2,.233011E-2,0
CONNECTA IOT-2,2024-149BG,2026-06-14T03:49:57.809568,15.23952414,.0005814,97.3844,243.3509,349.7852,10.3266,0,U,60522,999,10143,.19488E-3,.4644E-4,0
PTD-R (TYVAK-0127),2024-149BH,2026-06-13T18:14:53.318976,16.26616725,.00122745,97.3737,265.5498,266.6682,93.3206,0,U,60523,999,10289,.80186169E-3,.2620933E-1,.2456694E-5
CONNECTA IOT-4,2024-149BJ,2026-06-14T03:46:49.245024,15.42043485,.0004009,97.3806,249.4914,299.8693,60.2156,0,U,60524,999,10186,.45472E-3,.19352E-3,0
ORESAT0.5,2024-149BK,2026-06-14T04:53:23.242272,15.44981148,.0004052,97.3731,251.1577,286.9608,73.1197,0,U,60525,999,10201,.4233E-3,.19884E-3,0
DEIMOS,2024-149BL,2026-06-14T04:04:05.162016,15.44128834,.0004074,97.3788,251.2652,296.6653,63.4177,0,U,60526,999,10198,.41529E-3,.18948E-3,0
CUAVA-2,2024-149BM,2026-06-14T05:12:17.848800,15.36057674,.0005294,97.3734,246.7308,308.7416,51.3354,0,U,60527,999,10171,.34161E-3,.11925E-3,0
ERNST,2024-149BN,2026-06-14T04:18:06.107904,15.39141015,.000455,97.3818,248.8759,313.2865,46.8001,0,U,60528,999,10181,.38122E-3,.1472E-3,0
TORO,2024-149BQ,2026-06-14T03:55:57.632736,14.96416329,.0001676,97.6790,239.8881,84.7237,275.4175,0,U,60530,999,9950,.20101E-3,.2221E-4,0
HYPSO-2,2024-149BR,2026-06-14T04:42:49.034304,14.98777509,.0000768,97.6818,241.5014,30.4795,329.6472,0,U,60531,999,9960,.18577E-3,.2179E-4,0
LEMU NGE,2024-149BS,2026-06-14T04:09:21.684096,14.94946565,.0002359,97.6849,240.1935,69.0956,291.0517,0,U,60532,999,9950,.19158E-3,.2035E-4,0
LEMUR-2-STELLA,2024-149BT,2026-06-14T04:04:01.991136,15.11753702,.0001643,97.6746,247.6108,94.5801,265.5617,0,U,60533,999,10004,.71531E-3,.12144E-3,0
SATELIOT_2,2024-149BU,2026-06-14T05:13:34.373280,14.96350619,.0002015,97.6829,240.2277,99.1901,260.9549,0,U,60534,999,9952,.19808E-3,.2184E-4,0
NIGHTJAR,2024-149BV,2026-06-14T04:31:10.814304,14.99006489,.0001613,97.6853,241.9373,77.6858,282.4545,0,U,60535,999,14242,.18624E-3,.2198E-4,0
LEMUR-2-MARHISYAM,2024-149BW,2026-06-14T05:09:27.500832,15.11210346,.0003432,97.6890,248.1025,121.4376,238.7189,0,U,60536,999,10003,.66094E-3,.11047E-3,0
SATELIOT_4,2024-149BX,2026-06-14T03:53:46.525056,14.96660880,.0003424,97.6742,239.7032,68.4288,291.7299,0,U,60537,999,9952,.19655E-3,.2185E-4,0
PICO-02A021,2024-149BY,2026-06-12T16:57:28.537056,15.03207412,.00051124,97.6744,242.5761,39.5779,320.5819,0,U,60538,999,9906,.48996502E-3,.6572E-4,0
ICEYE-X43,2024-149BZ,2026-06-14T03:49:37.573824,14.99596606,.0008141,97.6780,242.1656,93.6841,266.5314,0,U,60539,999,9966,.32855E-3,.3987E-4,0
HAWK-10A,2024-149CA,2026-06-14T03:51:30.070080,14.96507252,.000509,97.6896,241.1240,86.7549,273.4255,0,U,60540,999,9953,.20376E-3,.2258E-4,0
UMBRA-09,2024-149CB,2026-06-14T04:00:34.327008,15.17970798,.0000525,97.6981,252.3209,291.4074,68.7103,0,U,60541,999,10026,.91245E-3,.18499E-3,0
QPS-SAR-8 (AMATERU-IV),2024-149CC,2026-06-14T04:48:01.079136,15.04111446,.0005011,97.6673,244.3753,113.7238,246.4514,0,U,60542,999,9982,.35114E-3,.4806E-4,0
ARCTIC WEATHER SATELLITE,2024-149CD,2026-06-14T04:45:45.237600,14.89802257,.0003604,97.6801,235.7494,109.6810,250.4797,0,U,60543,999,9885,.8769E-4,.788E-5,0
CAPELLA-15 (ACADIA-5),2024-149CE,2026-06-14T02:30:05.904000,14.92396744,.0005034,97.6775,238.0849,86.7003,273.4792,0,U,60544,999,9939,.37468E-3,.3782E-4,0
